[{"OBJECT_NAME":"ONEWEB-0376","OBJECT_ID":"2021-090Z","EPOCH":"2026-03-09T17:11:57.871392","MEAN_MOTION":13.19725499,"ECCENTRICITY":0.00017504,"INCLINATION":87.9237,"RA_OF_ASC_NODE":324.7777,"ARG_OF_PERICENTER":89.8249,"MEAN_ANOMALY":270.3084,"EPHEMERIS_TYPE":0,"CLASSIFICATION_TYPE":"U","NORAD_CAT_ID":49302,"ELEMENT_SET_NO":999,"REV_AT_EPOCH":21333,"BSTAR":-0.00038829675,"MEAN_MOTION_DOT":-1.43e-6,"MEAN_MOTION_DDOT":0},{"OBJECT_NAME":"UME-2 (ISS-B)","OBJECT_ID":"1978-018A","EPOCH":"2026-03-09T11:41:21.062976","MEAN_MOTION":13.43711106,"ECCENTRICITY":0.01659732,"INCLINATION":69.3611,"RA_OF_ASC_NODE":92.2994,"ARG_OF_PERICENTER":213.6385,"MEAN_ANOMALY":261.1964,"EPHEMERIS_TYPE":0,"CLASSIFICATION_TYPE":"U","NORAD_CAT_ID":10674,"ELEMENT_SET_NO":999,"REV_AT_EPOCH":35724,"BSTAR":8.418475e-6,"MEAN_MOTION_DOT":-4.5e-7,"MEAN_MOTION_DDOT":0}]
